     2.100          NAVIGATION                              RINEX VERSION / TYPE
fic2rin                                 02/05/2016 00:30:26 PGM / RUN BY / DATE
                                                            END OF HEADER
10 16  2  4 14  0  0.0  .466676428914D-04 -.306954461848D-11  .000000000000D+00
     .106000000000D+03  .943750000000D+01  .496913555587D-08 -.309303778665D+01
     .521540641785D-06  .110048323404D-02  .635720789433D-05  .515367789268D+04
     .396000000000D+06 -.745058059692D-08  .881292942348D+00 -.204890966415D-07
     .959432221666D+00  .258000000000D+03 -.292872583428D+01 -.814426781287D-08
     .156435087578D-09  .100000000000D+01  .188200000000D+04  .000000000000D+00
     .240000000000D+01  .000000000000D+00  .232830643654D-08  .106000000000D+03
     .388806000000D+06  .400000000000D+01
11 16  2  4 14  0  0.0 -.630660913885D-03 -.193267624127D-11  .000000000000D+00
     .940000000000D+02 -.557187500000D+02  .582452832927D-08 -.157726988266D+01
    -.260211527348D-05  .162036246620D-01  .945478677750D-05  .515365603828D+04
     .396000000000D+06  .119209289551D-06 -.524179230283D+00  .385567545891D-06
     .895798557766D+00  .160312500000D+03  .149939311668D+01 -.858321466820D-08
     .211794536378D-09  .100000000000D+01  .188200000000D+04  .000000000000D+00
     .240000000000D+01  .000000000000D+00 -.121071934700D-07  .940000000000D+02
     .388806000000D+06  .400000000000D+01
12 16  2  4 14  0  0.0  .365755986422D-03  .261479726760D-11  .000000000000D+00
     .330000000000D+02  .117812500000D+02  .401552440557D-08 -.208291932734D+01
     .637024641037D-06  .579920620658D-02  .243261456490D-05  .515378724670D+04
     .396000000000D+06 -.335276126862D-07 -.220598473456D+01 -.633299350739D-07
     .990250886324D+00  .348468750000D+03  .665832812552D+00 -.802926302246D-08
     .107504477993D-09  .100000000000D+01  .188200000000D+04  .000000000000D+00
     .240000000000D+01  .000000000000D+00 -.121071934700D-07  .330000000000D+02
     .388806000000D+06  .400000000000D+01
13 16  2  4 14  0  0.0 -.183068681508D-03 -.250111042988D-11  .000000000000D+00
     .910000000000D+02  .157500000000D+02  .428946438769D-08 -.740237238607D+00
     .894069671631D-06  .465602206532D-02  .972859561443D-05  .515368437576D+04
     .396000000000D+06 -.931322574615D-08  .204535889249D+01 -.558793544769D-07
     .971891770599D+00  .195875000000D+03  .198448683611D+01 -.788818571745D-08
    -.486448833975D-09  .100000000000D+01  .188200000000D+04  .000000000000D+00
     .340000000000D+01  .000000000000D+00 -.111758708954D-07  .910000000000D+02
     .388806000000D+06  .400000000000D+01
14 16  2  4 14  0  0.0  .507477670908D-05 -.227373675443D-11  .000000000000D+00
     .980000000000D+02 -.190625000000D+01  .444732810621D-08  .108855321589D+01
    -.726431608200D-07  .830925535411D-02  .993348658085D-05  .515372082710D+04
     .396000000000D+06 -.162050127983D-06  .200904263436D+01 -.186264514923D-07
     .964360053901D+00  .193343750000D+03 -.194924237466D+01 -.804604943597D-08
    -.599310677981D-09  .100000000000D+01  .188200000000D+04  .000000000000D+00
     .240000000000D+01  .000000000000D+00 -.931322574615D-08  .980000000000D+02
     .388806000000D+06  .400000000000D+01
15 16  2  4 14  0  0.0 -.295577570796D-03 -.181898940355D-11  .000000000000D+00
     .480000000000D+02 -.281250000000D+00  .533915096850D-08  .282466415277D+00
     .819563865662D-07  .805473665241D-02  .844150781631D-05  .515379016685D+04
     .396000000000D+06  .726431608200D-07  .187653269092D+01  .838190317154D-07
     .931084086247D+00  .196812500000D+03  .477416730575D+00 -.844142304772D-08
    -.579667002600D-09  .100000000000D+01  .188200000000D+04  .000000000000D+00
     .240000000000D+01  .000000000000D+00 -.107102096081D-07  .480000000000D+02
     .388806000000D+06  .400000000000D+01
16 16  2  4 14  0  0.0 -.425851903856D-04  .318323145621D-11  .000000000000D+00
     .210000000000D+02  .273125000000D+02  .402588197986D-08  .212352117035D+01
     .135414302349D-05  .849757681135D-02  .256299972534D-05  .515370069885D+04
     .396000000000D+06 -.100582838058D-06 -.218722808402D+01  .707805156708D-07
     .990758134150D+00  .347718750000D+03  .321690995515D+00 -.807426489697D-08
     .528593446610D-10  .100000000000D+01  .188200000000D+04  .000000000000D+00
     .240000000000D+01  .000000000000D+00 -.102445483208D-07  .210000000000D+02
     .388806000000D+06  .400000000000D+01
17 16  2  4 14  0  0.0 -.200126785785D-03 -.568434188608D-12  .000000000000D+00
     .110000000000D+02 -.925625000000D+02  .419196032626D-08  .115421141651D+01
    -.487826764584D-05  .109796012985D-01  .743567943573D-05  .515363711166D+04
     .396000000000D+06 -.208616256714D-06 -.116374487327D+01  .931322574615D-08
     .975032826877D+00  .243218750000D+03 -.195589647656D+01 -.811712382507D-08
    -.128933942045D-09  .100000000000D+01  .188200000000D+04  .000000000000D+00
     .240000000000D+01  .000000000000D+00 -.107102096081D-07  .110000000000D+02
     .388806000000D+06  .400000000000D+01
18 16  2  4 14  0  0.0  .480061862618D-03  .397903932026D-11  .000000000000D+00
     .240000000000D+02  .503125000000D+01  .564237788483D-08  .270902719340D+01
     .149011611938D-06  .165841957787D-01  .575557351112D-05  .515365274239D+04
     .396000000000D+06  .111758708954D-06  .856345023533D+00 -.201165676117D-06
     .924930192609D+00  .245250000000D+03 -.191495576907D+01 -.826320133836D-08
     .928610108910D-10  .100000000000D+01  .188200000000D+04  .000000000000D+00
     .240000000000D+01  .000000000000D+00 -.111758708954D-07  .240000000000D+02
     .388806000000D+06  .400000000000D+01
19 16  2  4 14  0  0.0 -.524736940861D-03 -.113686837722D-12  .000000000000D+00
     .101000000000D+03 -.990937500000D+02  .414302971667D-08 -.172776732259D+01
    -.526756048203D-05  .112537019886D-01  .721216201782D-05  .515519898987D+04
     .396000000000D+06  .113621354103D-06 -.111467750810D+01 -.968575477600D-07
     .972141898869D+00  .238218750000D+03  .677667597450D+00 -.783746931920D-08
     .746459664470D-10  .100000000000D+01  .188200000000D+04  .000000000000D+00
     .240000000000D+01  .000000000000D+00 -.153668224812D-07  .101000000000D+03
     .388806000000D+06  .400000000000D+01
20 16  2  4 14  0  0.0  .390491914004D-03  .261479726760D-11  .000000000000D+00
     .106000000000D+03  .590625000000D+01  .577916929703D-08  .403882876829D+00
     .476837158203D-06  .492789503187D-02  .615604221821D-05  .515368176460D+04
     .396000000000D+06 -.577419996262D-07  .804366650334D+00  .149011611938D-07
     .926215588506D+00  .243906250000D+03  .132795238353D+01 -.866321800066D-08
     .130719730716D-09  .100000000000D+01  .188200000000D+04  .000000000000D+00
     .240000000000D+01  .000000000000D+00 -.838190317154D-08  .106000000000D+03
     .388806000000D+06  .400000000000D+01
21 16  2  4 14  0  0.0 -.508767087013D-03 -.193267624127D-11  .000000000000D+00
     .340000000000D+02 -.393125000000D+02  .484734476851D-08 -.269694225536D+01
    -.222399830818D-05  .230750963092D-01  .100377947092D-04  .515368095970D+04
     .396000000000D+06  .445172190666D-06 -.185631601741D+00  .279396772385D-07
     .935983163364D+00  .164250000000D+03 -.183467697937D+01 -.778961018282D-08
     .571809532448D-09  .100000000000D+01  .188200000000D+04  .000000000000D+00
     .240000000000D+01  .000000000000D+00 -.116415321827D-07  .340000000000D+02
     .388806000000D+06  .400000000000D+01
22 16  2  4 14  0  0.0  .402135774493D-03 -.557065504836D-11  .000000000000D+00
     .530000000000D+02  .937500000000D+01  .589667419158D-08  .161726501257D+01
     .406056642532D-06  .760362308938D-02  .594928860664D-05  .515508821487D+04
     .396000000000D+06 -.195577740669D-06  .857122220707D+00 -.108033418655D-06
     .922778038232D+00  .248531250000D+03 -.202492358734D+01 -.868964767299D-08
     .191793703263D-09  .100000000000D+01  .188200000000D+04  .000000000000D+00
     .240000000000D+01  .000000000000D+00 -.176951289177D-07  .530000000000D+02
     .388806000000D+06  .400000000000D+01
23 16  2  4 14  0  0.0 -.158382114023D-03 -.193267624127D-11  .000000000000D+00
     .320000000000D+02 -.150000000000D+01  .495377777330D-08 -.119617133757D+00
    -.134110450745D-06  .104582292261D-01  .849179923534D-05  .515373202515D+04
     .396000000000D+06  .260770320892D-07  .193262284262D+01  .137835741043D-06
     .946298937515D+00  .205968750000D+03 -.261314046050D+01 -.835213361418D-08
    -.528236288876D-09  .100000000000D+01  .188200000000D+04  .000000000000D+00
     .240000000000D+01  .000000000000D+00 -.200234353542D-07  .320000000000D+02
     .388806000000D+06  .400000000000D+01
24 16  2  4 14  0  0.0 -.118189491332D-04 -.568434188608D-12  .000000000000D+00
     .980000000000D+02  .103562500000D+03  .454804658725D-08 -.733416706367D+00
     .527873635292D-05  .422390247695D-02  .886432826519D-05  .515363995934D+04
     .396000000000D+06  .137835741043D-06  .295870078581D+01  .204890966415D-07
     .951019513757D+00  .204031250000D+03  .353860340252D+00 -.814176770873D-08
    -.600024993449D-10  .100000000000D+01  .188200000000D+04  .000000000000D+00
     .340000000000D+01  .000000000000D+00  .232830643654D-08  .980000000000D+02
     .388806000000D+06  .400000000000D+01
25 16  2  4 14  0  0.0 -.111178960651D-03 -.659383658785D-11  .000000000000D+00
     .960000000000D+02  .234375000000D+02  .423589072757D-08 -.267307281438D+01
     .123679637909D-05  .508167454973D-02  .245310366154D-05  .515355998611D+04
     .396000000000D+06 -.372529029846D-07 -.225556317456D+01 -.186264514923D-08
     .978597981643D+00  .342843750000D+03  .695690515582D+00 -.815426822943D-08
     .142505935944D-09  .100000000000D+01  .188200000000D+04  .000000000000D+00
     .240000000000D+01  .000000000000D+00  .558793544769D-08  .960000000000D+02
     .388806000000D+06  .400000000000D+01
